{
  "type": "FeatureCollection",
  "features": [
    {
      "type": "Feature",
      "properties": {
        "norad_id": 58647,
        "name": "TIANMU-1 13",
        "group": "weather",
        "lat": -21.268344804723178,
        "lon": 16.539454837010375,
        "alt_km": 498.4094610706343,
        "timestamp": "2025-12-20T03:42:47.035901+00:00",
        "meta_object_name": "TIANMU-1 13",
        "meta_object_id": "2023-205C",
        "meta_epoch": "2025-12-19T21:30:22.551840",
        "meta_mean_motion": 15.24608964,
        "meta_eccentricity": 0.0006251,
        "meta_inclination": 97.3612,
        "meta_ra_of_asc_node": 13.4009,
        "meta_arg_of_pericenter": 235.1783,
        "meta_mean_anomaly": 124.8867,
        "meta_ephemeris_type": 0,
        "meta_classification_type": "U",
        "meta_norad_cat_id": 58647,
        "meta_element_set_no": 999,
        "meta_rev_at_epoch": 11016,
        "meta_bstar": 0.00018389,
        "meta_mean_motion_dot": 4.466e-05,
        "meta_mean_motion_ddot": 0,
        "tle_line1": "1 58647U 23205C   25353.89609435  .00004466  00000+0  18389-3 0  9995",
        "tle_line2": "2 58647  97.3612  13.4009 0006251 235.1783 124.8867 15.24608964110160"
      },
      "geometry": {
        "type": "Point",
        "coordinates": [
          16.539454837010375,
          -21.268344804723178
        ]
      }
    },
    {
      "type": "Feature",
      "properties": {
        "norad_id": 58648,
        "name": "TIANMU-1 14",
        "group": "weather",
        "lat": 67.93569819584185,
        "lon": -5.5842771202982355,
        "alt_km": 490.1594265895037,
        "timestamp": "2025-12-20T03:42:47.035912+00:00",
        "meta_object_name": "TIANMU-1 14",
        "meta_object_id": "2023-205D",
        "meta_epoch": "2025-12-19T19:32:04.301952",
        "meta_mean_motion": 15.24591391,
        "meta_eccentricity": 0.0006982,
        "meta_inclination": 97.3544,
        "meta_ra_of_asc_node": 12.6624,
        "meta_arg_of_pericenter": 241.4918,
        "meta_mean_anomaly": 118.5617,
        "meta_ephemeris_type": 0,
        "meta_classification_type": "U",
        "meta_norad_cat_id": 58648,
        "meta_element_set_no": 999,
        "meta_rev_at_epoch": 11015,
        "meta_bstar": 0.00018665,
        "meta_mean_motion_dot": 4.532e-05,
        "meta_mean_motion_ddot": 0,
        "tle_line1": "1 58648U 23205D   25353.81393868  .00004532  00000+0  18665-3 0  9999",
        "tle_line2": "2 58648  97.3544  12.6624 0006982 241.4918 118.5617 15.24591391110157"
      },
      "geometry": {
        "type": "Point",
        "coordinates": [
          -5.5842771202982355,
          67.93569819584185
        ]
      }
    },
    {
      "type": "Feature",
      "properties": {
        "norad_id": 58660,
        "name": "TIANMU-1 19",
        "group": "weather",
        "lat": 53.05876741325185,
        "lon": 95.17039378052368,
        "alt_km": 479.8964132151168,
        "timestamp": "2025-12-20T03:42:47.035922+00:00",
        "meta_object_name": "TIANMU-1 19",
        "meta_object_id": "2023-208A",
        "meta_epoch": "2025-12-19T21:11:30.293664",
        "meta_mean_motion": 15.27972376,
        "meta_eccentricity": 0.0004431,
        "meta_inclination": 97.4395,
        "meta_ra_of_asc_node": 104.9066,
        "meta_arg_of_pericenter": 221.4186,
        "meta_mean_anomaly": 138.6718,
        "meta_ephemeris_type": 0,
        "meta_classification_type": "U",
        "meta_norad_cat_id": 58660,
        "meta_element_set_no": 999,
        "meta_rev_at_epoch": 10991,
        "meta_bstar": 0.00023875,
        "meta_mean_motion_dot": 6.442e-05,
        "meta_mean_motion_ddot": 0,
        "tle_line1": "1 58660U 23208A   25353.88298951  .00006442  00000+0  23875-3 0  9991",
        "tle_line2": "2 58660  97.4395 104.9066 0004431 221.4186 138.6718 15.27972376109919"
      },
      "geometry": {
        "type": "Point",
        "coordinates": [
          95.17039378052368,
          53.05876741325185
        ]
      }
    },
    {
      "type": "Feature",
      "properties": {
        "norad_id": 58661,
        "name": "TIANMU-1 20",
        "group": "weather",
        "lat": 20.03206451600952,
        "lon": -71.63881465648099,
        "alt_km": 477.30824869324897,
        "timestamp": "2025-12-20T03:42:47.035932+00:00",
        "meta_object_name": "TIANMU-1 20",
        "meta_object_id": "2023-208B",
        "meta_epoch": "2025-12-19T20:44:04.005600",
        "meta_mean_motion": 15.29162673,
        "meta_eccentricity": 0.0006526,
        "meta_inclination": 97.4333,
        "meta_ra_of_asc_node": 105.3422,
        "meta_arg_of_pericenter": 235.7602,
        "meta_mean_anomaly": 124.302,
        "meta_ephemeris_type": 0,
        "meta_classification_type": "U",
        "meta_norad_cat_id": 58661,
        "meta_element_set_no": 999,
        "meta_rev_at_epoch": 10998,
        "meta_bstar": 0.00024548,
        "meta_mean_motion_dot": 6.875e-05,
        "meta_mean_motion_ddot": 0,
        "tle_line1": "1 58661U 23208B   25353.86393525  .00006875  00000+0  24548-3 0  9991",
        "tle_line2": "2 58661  97.4333 105.3422 0006526 235.7602 124.3020 15.29162673109989"
      },
      "geometry": {
        "type": "Point",
        "coordinates": [
          -71.63881465648099,
          20.03206451600952
        ]
      }
    },
    {
      "type": "Feature",
      "properties": {
        "norad_id": 58662,
        "name": "TIANMU-1 21",
        "group": "weather",
        "lat": -51.177058120440925,
        "lon": -81.76936793686765,
        "alt_km": 473.50530991524556,
        "timestamp": "2025-12-20T03:42:47.035942+00:00",
        "meta_object_name": "TIANMU-1 21",
        "meta_object_id": "2023-208C",
        "meta_epoch": "2025-12-19T20:25:57.546336",
        "meta_mean_motion": 15.31694983,
        "meta_eccentricity": 0.000617,
        "meta_inclination": 97.438,
        "meta_ra_of_asc_node": 107.2698,
        "meta_arg_of_pericenter": 230.2024,
        "meta_mean_anomaly": 129.8675,
        "meta_ephemeris_type": 0,
        "meta_classification_type": "U",
        "meta_norad_cat_id": 58662,
        "meta_element_set_no": 999,
        "meta_rev_at_epoch": 11008,
        "meta_bstar": 0.00026081,
        "meta_mean_motion_dot": 7.908e-05,
        "meta_mean_motion_ddot": 0,
        "tle_line1": "1 58662U 23208C   25353.85136049  .00007908  00000+0  26081-3 0  9999",
        "tle_line2": "2 58662  97.4380 107.2698 0006170 230.2024 129.8675 15.31694983110087"
      },
      "geometry": {
        "type": "Point",
        "coordinates": [
          -81.76936793686765,
          -51.177058120440925
        ]
      }
    },
    {
      "type": "Feature",
      "properties": {
        "norad_id": 58663,
        "name": "TIANMU-1 22",
        "group": "weather",
        "lat": 47.71548587223417,
        "lon": 96.97311753594943,
        "alt_km": 480.20226464832194,
        "timestamp": "2025-12-20T03:42:47.035955+00:00",
        "meta_object_name": "TIANMU-1 22",
        "meta_object_id": "2023-208D",
        "meta_epoch": "2025-12-19T21:12:52.458336",
        "meta_mean_motion": 15.27717947,
        "meta_eccentricity": 0.0002736,
        "meta_inclination": 97.4389,
        "meta_ra_of_asc_node": 104.9633,
        "meta_arg_of_pericenter": 249.2599,
        "meta_mean_anomaly": 110.8347,
        "meta_ephemeris_type": 0,
        "meta_classification_type": "U",
        "meta_norad_cat_id": 58663,
        "meta_element_set_no": 999,
        "meta_rev_at_epoch": 10992,
        "meta_bstar": 0.0002313,
        "meta_mean_motion_dot": 6.19e-05,
        "meta_mean_motion_ddot": 0,
        "tle_line1": "1 58663U 23208D   25353.88394049  .00006190  00000+0  23130-3 0  9993",
        "tle_line2": "2 58663  97.4389 104.9633 0002736 249.2599 110.8347 15.27717947109929"
      },
      "geometry": {
        "type": "Point",
        "coordinates": [
          96.97311753594943,
          47.71548587223417
        ]
      }
    },
    {
      "type": "Feature",
      "properties": {
        "norad_id": 58700,
        "name": "TIANMU-1 15",
        "group": "weather",
        "lat": 82.14689606786317,
        "lon": 67.45271566421386,
        "alt_km": 488.80850538657796,
        "timestamp": "2025-12-20T03:42:47.035965+00:00",
        "meta_object_name": "TIANMU-1 15",
        "meta_object_id": "2024-004A",
        "meta_epoch": "2025-12-19T21:00:27.254880",
        "meta_mean_motion": 15.24494862,
        "meta_eccentricity": 0.0005943,
        "meta_inclination": 97.462,
        "meta_ra_of_asc_node": 175.3179,
        "meta_arg_of_pericenter": 259.9131,
        "meta_mean_anomaly": 100.1436,
        "meta_ephemeris_type": 0,
        "meta_classification_type": "U",
        "meta_norad_cat_id": 58700,
        "meta_element_set_no": 999,
        "meta_rev_at_epoch": 10843,
        "meta_bstar": 0.00020118,
        "meta_mean_motion_dot": 4.874e-05,
        "meta_mean_motion_ddot": 0,
        "tle_line1": "1 58700U 24004A   25353.87531545  .00004874  00000+0  20118-3 0  9993",
        "tle_line2": "2 58700  97.4620 175.3179 0005943 259.9131 100.1436 15.24494862108430"
      },
      "geometry": {
        "type": "Point",
        "coordinates": [
          67.45271566421386,
          82.14689606786317
        ]
      }
    }
  ]
}